{
    "links": {
        "self": "http://www.neowsapp.com/rest/v1/neo/3444437?api_key=iIulBulltgU6a56xZRHN4H3l9WmuAYTsLGpBGhQ2"
    },
    "id": "3444437",
    "neo_reference_id": "3444437",
    "name": "(2009 BP5)",
    "designation": "2009 BP5",
    "nasa_jpl_url": "http://ssd.jpl.nasa.gov/sbdb.cgi?sstr=3444437",
    "absolute_magnitude_h": 22.7,
    "estimated_diameter": {
        "kilometers": {
            "estimated_diameter_min": 0.0766575574,
            "estimated_diameter_max": 0.1714115092
        },
        "meters": {
            "estimated_diameter_min": 76.6575573531,
            "estimated_diameter_max": 171.4115092306
        },
        "miles": {
            "estimated_diameter_min": 0.0476327831,
            "estimated_diameter_max": 0.1065101409
        },
        "feet": {
            "estimated_diameter_min": 251.5011804664,
            "estimated_diameter_max": 562.3737359442
        }
    },
    "is_potentially_hazardous_asteroid": false,
    "close_approach_data": [
        {
            "close_approach_date": "2009-02-03",
            "close_approach_date_full": "2009-Feb-03 09:45",
            "epoch_date_close_approach": 1233654300000,
            "relative_velocity": {
                "kilometers_per_second": "20.7520597579",
                "kilometers_per_hour": "74707.4151285149",
                "miles_per_hour": "46420.282472493"
            },
            "miss_distance": {
                "astronomical": "0.053192912",
                "lunar": "20.692042768",
                "kilometers": "7957546.33429744",
                "miles": "4944590.008447072"
            },
            "orbiting_body": "Earth"
        }
    ],
    "orbital_data": {
        "orbit_id": "10",
        "orbit_determination_date": "2017-04-06 09:01:36",
        "first_observation_date": "2009-01-20",
        "last_observation_date": "2009-01-29",
        "data_arc_in_days": 9,
        "observations_used": 33,
        "orbit_uncertainty": "9",
        "minimum_orbit_intersection": ".000776595",
        "jupiter_tisserand_invariant": "3.372",
        "epoch_osculation": "2454856.5",
        "eccentricity": ".6869484624223797",
        "semi_major_axis": "2.127343479941397",
        "inclination": "4.935402113035322",
        "ascending_node_longitude": "116.8132639570712",
        "orbital_period": "1133.325998792108",
        "perihelion_distance": ".6659681473513798",
        "perihelion_argument": "99.18773358145094",
        "aphelion_distance": "3.588718812531414",
        "perihelion_time": "2454910.680324643225",
        "mean_anomaly": "342.7896678516603",
        "mean_motion": ".3176491145386992",
        "equinox": "J2000",
        "orbit_class": {
            "orbit_class_type": "APO",
            "orbit_class_description": "Near-Earth asteroid orbits which cross the Earth’s orbit similar to that of 1862 Apollo",
            "orbit_class_range": "a (semi-major axis) > 1.0 AU; q (perihelion) < 1.017 AU"
        }
    },
    "is_sentry_object": false
}